ONEWEB-0168             
1 48068U 21025AC  24085.64154168  .00000223  00000+0  57489-3 0  9992
2 48068  87.8919 122.1557 0002071  97.7562 262.3802 13.13471676146765
ONEWEB-0173             
1 48069U 21025AD  24086.54775036  .00000360  00000+0  95046-3 0  9999
2 48069  87.8918 121.9856 0001885 110.7862 249.3469 13.13470512147128
ONEWEB-0171             
1 48070U 21025AE  24086.50806828 -.00000279  00000+0 -79882-3 0  9992
2 48070  87.8918 122.0287 0001866  98.5860 261.5481 13.13469979146933
ONEWEB-0172             
1 48071U 21025AF  24086.18272434  .00000067  00000+0  14908-3 0  9998
2 48071  87.8919 122.0600 0001825 100.2779 259.8556 13.13469831147783
ONEWEB-0174             
1 48072U 21025AG  24085.86055815  .00000425  00000+0  11295-2 0  9998
2 48072  87.8920 122.1386 0002197  96.0645 264.0735 13.13471313147061
ONEWEB-0175             
1 48073U 21025AH  24085.81294100 -.00000235  00000+0 -67724-3 0  9996
2 48073  87.8912 122.1414 0001590  93.4768 266.6543 13.13469841146717
ONEWEB-0177             
1 48074U 21025AJ  24086.51123940 -.00000234  00000+0 -67467-3 0  9991
2 48074  87.8911 122.0088 0002204 107.6843 252.4527 13.13470301146996
ONEWEB-0178             
1 48075U 21025AK  24086.14795290  .00000143  00000+0  35793-3 0  9998
2 48075  87.8918 122.0933 0002042 103.6276 256.5080 13.13470552146996
